38040,GLOBALSTAR M084,2011,114.08,700.0,+,52.0,Active,1,LEO,Kazakhstan,Globalstar,Commercial,Communications,Soyuz,1 38040U 11080A   25301.59493718 -.00000114  00000+0 -55676-4 0  9992,2 38040  52.0036   2.3322 0000242  65.8297  83.0963 12.62264346639519,12.62264346,2.42e-05,LEO
38041,GLOBALSTAR M080,2011,114.08,700.0,+,52.01,Active,1,LEO,Kazakhstan,Globalstar,Commercial,Communications,Soyuz,1 38041U 11080B   25301.64833023 -.00000084  00000+0  10883-3 0  9991,2 38041  52.0086   3.8087 0000912 107.9581  53.0407 12.62269987639647,12.62269987,9.12e-05,LEO
38042,GLOBALSTAR M082,2011,114.08,700.0,+,52.01,Active,1,LEO,Kazakhstan,Globalstar,Commercial,Communications,Soyuz,1 38042U 11080C   25301.50405881 -.00000077  00000+0  15199-3 0  9991,2 38042  52.0085 319.7244 0000643 104.4390  51.0301 12.62264333640331,12.62264333,6.43e-05,LEO
38043,GLOBALSTAR M092,2011,114.08,700.0,+,52.01,Active,1,LEO,Kazakhstan,Globalstar,Commercial,Communications,Soyuz,1 38043U 11080D   25301.54726367 -.00000094  00000+0  54546-4 0  9990,2 38043  52.0097  49.9738 0000679 106.9455   4.1432 12.62267317638799,12.62267317,6.79e-05,LEO
38044,GLOBALSTAR M090,2011,114.08,700.0,+,52.01,Active,1,LEO,Kazakhstan,Globalstar,Commercial,Communications,Soyuz,1 38044U 11080E   25301.53433417 -.00000084  00000+0  11167-3 0  9991,2 38044  52.0133 313.5137 0000332 106.7087  65.4933 12.62263471640458,12.62263471,3.32e-05,LEO
38045,GLOBALSTAR M086,2011,114.08,700.0,+,51.99,Active,1,LEO,Kazakhstan,Globalstar,Commercial,Communications,Soyuz,1 38045U 11080F   25301.28680622 -.00000075  00000+0  15822-3 0  9998,2 38045  51.9906 314.5741 0000655 251.4863 122.2554 12.62278701640379,12.62278701,6.55e-05,LEO
39072,GLOBALSTAR M097,2013,114.08,700.0,+,52.0,Active,1,LEO,Kazakhstan,Globalstar,Commercial,Communications,Soyuz,1 39072U 13005A   25301.46979165 -.00000084  00000+0  11107-3 0  9993,2 39072  52.0042 228.7045 0000547  76.3296 283.7632 12.62266874587648,12.62266874,5.47e-05,LEO
39073,GLOBALSTAR M093,2013,114.08,700.0,+,52.01,Active,1,LEO,Kazakhstan,Globalstar,Commercial,Communications,Soyuz,1 39073U 13005B   25301.12706182 -.00000076  00000+0  15372-3 0  9993,2 39073  52.0102 223.0073 0000566  95.9620 264.1312 12.62265784587551,12.62265784,5.66e-05,LEO
